CCSDS_OMM_VERS = 2.0
CREATION_DATE  = 
ORIGINATOR     = 

OBJECT_NAME    = UNKNOWN
OBJECT_ID      = 
CENTER_NAME    = EARTH
REF_FRAME      = TEME
TIME_SYSTEM    = UTC
MEAN_ELEMENT_THEORY = SGP/SGP4

EPOCH          = 2026-02-28T15:55:13.168704
MEAN_MOTION    = 12.55074888
ECCENTRICITY   = .00644025
INCLINATION    = 101.8581
RA_OF_ASC_NODE = 44.3853
ARG_OF_PERICENTER = 249.5505
MEAN_ANOMALY   = 109.8644

EPHEMERIS_TYPE = 0
CLASSIFICATION_TYPE = U
NORAD_CAT_ID   = 270014
ELEMENT_SET_NO = 999
REV_AT_EPOCH   = 28670
BSTAR          = .7064911E-3
MEAN_MOTION_DOT = .7E-6
MEAN_MOTION_DDOT = 0

CCSDS_OMM_VERS = 2.0
CREATION_DATE  = 
ORIGINATOR     = 

OBJECT_NAME    = UNKNOWN
OBJECT_ID      = 
CENTER_NAME    = EARTH
REF_FRAME      = TEME
TIME_SYSTEM    = UTC
MEAN_ELEMENT_THEORY = SGP/SGP4

EPOCH          = 2026-03-06T05:38:45.804768
MEAN_MOTION    = 13.04765261
ECCENTRICITY   = .00331924
INCLINATION    = 90.1613
RA_OF_ASC_NODE = 356.2188
ARG_OF_PERICENTER = 80.7430
MEAN_ANOMALY   = 279.7447

EPHEMERIS_TYPE = 0
CLASSIFICATION_TYPE = U
NORAD_CAT_ID   = 270015
ELEMENT_SET_NO = 999
REV_AT_EPOCH   = 29864
BSTAR          = .20511977E-2
MEAN_MOTION_DOT = .67E-5
MEAN_MOTION_DDOT = 0

CCSDS_OMM_VERS = 2.0
CREATION_DATE  = 
ORIGINATOR     = 

OBJECT_NAME    = UNKNOWN
OBJECT_ID      = 
CENTER_NAME    = EARTH
REF_FRAME      = TEME
TIME_SYSTEM    = UTC
MEAN_ELEMENT_THEORY = SGP/SGP4

EPOCH          = 2026-02-26T13:10:27.911424
MEAN_MOTION    = 14.08600731
ECCENTRICITY   = .00557397
INCLINATION    = 99.8065
RA_OF_ASC_NODE = 172.0212
ARG_OF_PERICENTER = 278.0228
MEAN_ANOMALY   = 81.4616

EPHEMERIS_TYPE = 0
CLASSIFICATION_TYPE = U
NORAD_CAT_ID   = 270018
ELEMENT_SET_NO = 999
REV_AT_EPOCH   = 31906
BSTAR          = .30001574E-2
MEAN_MOTION_DOT = .5184E-4
MEAN_MOTION_DDOT = 0

CCSDS_OMM_VERS = 2.0
CREATION_DATE  = 
ORIGINATOR     = 

OBJECT_NAME    = UNKNOWN
OBJECT_ID      = 
CENTER_NAME    = EARTH
REF_FRAME      = TEME
TIME_SYSTEM    = UTC
MEAN_ELEMENT_THEORY = SGP/SGP4

EPOCH          = 2026-03-05T02:02:52.067040
MEAN_MOTION    = 12.95847932
ECCENTRICITY   = .00531486
INCLINATION    = 90.2533
RA_OF_ASC_NODE = 8.2688
ARG_OF_PERICENTER = 91.5945
MEAN_ANOMALY   = 269.1264

EPHEMERIS_TYPE = 0
CLASSIFICATION_TYPE = U
NORAD_CAT_ID   = 270019
ELEMENT_SET_NO = 999
REV_AT_EPOCH   = 29644
BSTAR          = .52562759E-3
MEAN_MOTION_DOT = .158E-5
MEAN_MOTION_DDOT = 0

CCSDS_OMM_VERS = 2.0
CREATION_DATE  = 
ORIGINATOR     = 

OBJECT_NAME    = UNKNOWN
OBJECT_ID      = 
CENTER_NAME    = EARTH
REF_FRAME      = TEME
TIME_SYSTEM    = UTC
MEAN_ELEMENT_THEORY = SGP/SGP4

EPOCH          = 2026-03-05T08:54:13.172256
MEAN_MOTION    = 13.96454385
ECCENTRICITY   = .00169676
INCLINATION    = 82.5314
RA_OF_ASC_NODE = 98.6523
ARG_OF_PERICENTER = 297.7768
MEAN_ANOMALY   = 62.1678

EPHEMERIS_TYPE = 0
CLASSIFICATION_TYPE = U
NORAD_CAT_ID   = 270020
ELEMENT_SET_NO = 999
REV_AT_EPOCH   = 31849
BSTAR          = .10907661E-2
MEAN_MOTION_DOT = .1522E-4
MEAN_MOTION_DDOT = 0

CCSDS_OMM_VERS = 2.0
CREATION_DATE  = 
ORIGINATOR     = 

OBJECT_NAME    = UNKNOWN
OBJECT_ID      = 
CENTER_NAME    = EARTH
REF_FRAME      = TEME
TIME_SYSTEM    = UTC
MEAN_ELEMENT_THEORY = SGP/SGP4

EPOCH          = 2026-03-05T09:56:28.372128
MEAN_MOTION    = 12.65889526
ECCENTRICITY   = .00595947
INCLINATION    = 82.7166
RA_OF_ASC_NODE = 132.1736
ARG_OF_PERICENTER = 243.7591
MEAN_ANOMALY   = 115.7370

EPHEMERIS_TYPE = 0
CLASSIFICATION_TYPE = U
NORAD_CAT_ID   = 270021
ELEMENT_SET_NO = 999
REV_AT_EPOCH   = 28952
BSTAR          = .19201858E-2
MEAN_MOTION_DOT = .373E-5
MEAN_MOTION_DDOT = 0

CCSDS_OMM_VERS = 2.0
CREATION_DATE  = 
ORIGINATOR     = 

OBJECT_NAME    = UNKNOWN
OBJECT_ID      = 
CENTER_NAME    = EARTH
REF_FRAME      = TEME
TIME_SYSTEM    = UTC
MEAN_ELEMENT_THEORY = SGP/SGP4

EPOCH          = 2026-02-27T19:43:02.748576
MEAN_MOTION    = 12.65716703
ECCENTRICITY   = .05865542
INCLINATION    = 100.1121
RA_OF_ASC_NODE = 266.5420
ARG_OF_PERICENTER = 273.6921
MEAN_ANOMALY   = 79.7313

EPHEMERIS_TYPE = 0
CLASSIFICATION_TYPE = U
NORAD_CAT_ID   = 270022
ELEMENT_SET_NO = 999
REV_AT_EPOCH   = 28548
BSTAR          = .12057569E-1
MEAN_MOTION_DOT = .4404E-4
MEAN_MOTION_DDOT = 0

CCSDS_OMM_VERS = 2.0
CREATION_DATE  = 
ORIGINATOR     = 

OBJECT_NAME    = UNKNOWN
OBJECT_ID      = 
CENTER_NAME    = EARTH
REF_FRAME      = TEME
TIME_SYSTEM    = UTC
MEAN_ELEMENT_THEORY = SGP/SGP4

EPOCH          = 2026-03-02T00:48:23.203296
MEAN_MOTION    = 11.92242722
ECCENTRICITY   = .03970699
INCLINATION    = 103.3399
RA_OF_ASC_NODE = 181.3519
ARG_OF_PERICENTER = 179.7312
MEAN_ANOMALY   = 180.3996

EPHEMERIS_TYPE = 0
CLASSIFICATION_TYPE = U
NORAD_CAT_ID   = 270026
ELEMENT_SET_NO = 999
REV_AT_EPOCH   = 27229
BSTAR          = .54509869E-2
MEAN_MOTION_DOT = .455E-5
MEAN_MOTION_DDOT = 0

CCSDS_OMM_VERS = 2.0
CREATION_DATE  = 
ORIGINATOR     = 

OBJECT_NAME    = UNKNOWN
OBJECT_ID      = 
CENTER_NAME    = EARTH
REF_FRAME      = TEME
TIME_SYSTEM    = UTC
MEAN_ELEMENT_THEORY = SGP/SGP4

EPOCH          = 2026-02-14T21:08:55.260096
MEAN_MOTION    = 13.96473170
ECCENTRICITY   = .00075826
INCLINATION    = 82.5191
RA_OF_ASC_NODE = 107.1781
ARG_OF_PERICENTER = 216.1227
MEAN_ANOMALY   = 143.9429

EPHEMERIS_TYPE = 0
CLASSIFICATION_TYPE = U
NORAD_CAT_ID   = 270029
ELEMENT_SET_NO = 999
REV_AT_EPOCH   = 31583
BSTAR          = .14524746E-2
MEAN_MOTION_DOT = .2021E-4
MEAN_MOTION_DDOT = 0

CCSDS_OMM_VERS = 2.0
CREATION_DATE  = 
ORIGINATOR     = 

OBJECT_NAME    = UNKNOWN
OBJECT_ID      = 
CENTER_NAME    = EARTH
REF_FRAME      = TEME
TIME_SYSTEM    = UTC
MEAN_ELEMENT_THEORY = SGP/SGP4

EPOCH          = 2026-03-08T02:11:43.696608
MEAN_MOTION    = 13.02127223
ECCENTRICITY   = .0036543
INCLINATION    = 90.2732
RA_OF_ASC_NODE = 19.1130
ARG_OF_PERICENTER = 190.0572
MEAN_ANOMALY   = 169.9824

EPHEMERIS_TYPE = 0
CLASSIFICATION_TYPE = U
NORAD_CAT_ID   = 270030
ELEMENT_SET_NO = 999
REV_AT_EPOCH   = 29817
BSTAR          = .40154336E-2
MEAN_MOTION_DOT = .1256E-4
MEAN_MOTION_DDOT = 0

CCSDS_OMM_VERS = 2.0
CREATION_DATE  = 
ORIGINATOR     = 

OBJECT_NAME    = UNKNOWN
OBJECT_ID      = 
CENTER_NAME    = EARTH
REF_FRAME      = TEME
TIME_SYSTEM    = UTC
MEAN_ELEMENT_THEORY = SGP/SGP4

EPOCH          = 2026-02-27T15:03:55.437408
MEAN_MOTION    = 13.00221685
ECCENTRICITY   = .00063928
INCLINATION    = 90.2622
RA_OF_ASC_NODE = 18.2852
ARG_OF_PERICENTER = 267.1323
MEAN_ANOMALY   = 92.9067

EPHEMERIS_TYPE = 0
CLASSIFICATION_TYPE = U
NORAD_CAT_ID   = 270031
ELEMENT_SET_NO = 999
REV_AT_EPOCH   = 29646
BSTAR          = .19609669E-2
MEAN_MOTION_DOT = .599E-5
MEAN_MOTION_DDOT = 0

CCSDS_OMM_VERS = 2.0
CREATION_DATE  = 
ORIGINATOR     = 

OBJECT_NAME    = UNKNOWN
OBJECT_ID      = 
CENTER_NAME    = EARTH
REF_FRAME      = TEME
TIME_SYSTEM    = UTC
MEAN_ELEMENT_THEORY = SGP/SGP4

EPOCH          = 2026-03-02T16:14:56.414112
MEAN_MOTION    = 11.80658539
ECCENTRICITY   = .0244145
INCLINATION    = 81.3011
RA_OF_ASC_NODE = 215.7899
ARG_OF_PERICENTER = 25.1962
MEAN_ANOMALY   = 336.0759

EPHEMERIS_TYPE = 0
CLASSIFICATION_TYPE = U
NORAD_CAT_ID   = 270032
ELEMENT_SET_NO = 999
REV_AT_EPOCH   = 26989
BSTAR          = .3309903E-2
MEAN_MOTION_DOT = .236E-5
MEAN_MOTION_DDOT = 0

CCSDS_OMM_VERS = 2.0
CREATION_DATE  = 
ORIGINATOR     = 

OBJECT_NAME    = UNKNOWN
OBJECT_ID      = 
CENTER_NAME    = EARTH
REF_FRAME      = TEME
TIME_SYSTEM    = UTC
MEAN_ELEMENT_THEORY = SGP/SGP4

EPOCH          = 2026-03-10T11:42:42.139008
MEAN_MOTION    = 13.72180536
ECCENTRICITY   = .0574256
INCLINATION    = 81.9718
RA_OF_ASC_NODE = 162.7383
ARG_OF_PERICENTER = 205.2399
MEAN_ANOMALY   = 151.9663

EPHEMERIS_TYPE = 0
CLASSIFICATION_TYPE = U
NORAD_CAT_ID   = 270033
ELEMENT_SET_NO = 999
REV_AT_EPOCH   = 31406
BSTAR          = .750871E-3
MEAN_MOTION_DOT = .2291E-4
MEAN_MOTION_DDOT = 0

CCSDS_OMM_VERS = 2.0
CREATION_DATE  = 
ORIGINATOR     = 

OBJECT_NAME    = UNKNOWN
OBJECT_ID      = 
CENTER_NAME    = EARTH
REF_FRAME      = TEME
TIME_SYSTEM    = UTC
MEAN_ELEMENT_THEORY = SGP/SGP4

EPOCH          = 2026-03-08T07:23:31.545600
MEAN_MOTION    = 13.76214665
ECCENTRICITY   = .01073728
INCLINATION    = 100.3729
RA_OF_ASC_NODE = 267.4061
ARG_OF_PERICENTER = 257.8789
MEAN_ANOMALY   = 101.0311

EPHEMERIS_TYPE = 0
CLASSIFICATION_TYPE = U
NORAD_CAT_ID   = 270036
ELEMENT_SET_NO = 999
REV_AT_EPOCH   = 31474
BSTAR          = .17675688E-2
MEAN_MOTION_DOT = .1744E-4
MEAN_MOTION_DDOT = 0

CCSDS_OMM_VERS = 2.0
CREATION_DATE  = 
ORIGINATOR     = 

OBJECT_NAME    = UNKNOWN
OBJECT_ID      = 
CENTER_NAME    = EARTH
REF_FRAME      = TEME
TIME_SYSTEM    = UTC
MEAN_ELEMENT_THEORY = SGP/SGP4

EPOCH          = 2026-03-08T14:43:42.855744
MEAN_MOTION    = 12.81802987
ECCENTRICITY   = .02531165
INCLINATION    = 102.8349
RA_OF_ASC_NODE = 188.1931
ARG_OF_PERICENTER = 226.8521
MEAN_ANOMALY   = 131.1151

EPHEMERIS_TYPE = 0
CLASSIFICATION_TYPE = U
NORAD_CAT_ID   = 270038
ELEMENT_SET_NO = 999
REV_AT_EPOCH   = 29139
BSTAR          = .5035361E-1
MEAN_MOTION_DOT = .13424E-3
MEAN_MOTION_DDOT = 0

CCSDS_OMM_VERS = 2.0
CREATION_DATE  = 
ORIGINATOR     = 

OBJECT_NAME    = UNKNOWN
OBJECT_ID      = 
CENTER_NAME    = EARTH
REF_FRAME      = TEME
TIME_SYSTEM    = UTC
MEAN_ELEMENT_THEORY = SGP/SGP4

EPOCH          = 2026-03-10T09:51:19.360800
MEAN_MOTION    = 14.05047555
ECCENTRICITY   = .00086331
INCLINATION    = 82.5549
RA_OF_ASC_NODE = 326.6359
ARG_OF_PERICENTER = 115.3960
MEAN_ANOMALY   = 244.8107

EPHEMERIS_TYPE = 0
CLASSIFICATION_TYPE = U
NORAD_CAT_ID   = 270039
ELEMENT_SET_NO = 999
REV_AT_EPOCH   = 32103
BSTAR          = .18643876E-2
MEAN_MOTION_DOT = .3019E-4
MEAN_MOTION_DDOT = 0

